COMMENT,ORIGINATOR,NORAD_CAT_ID,OBJECT_NAME,OBJECT_TYPE,CLASSIFICATION_TYPE,INTLDES,EPOCH,EPOCH_MICROSECONDS,MEAN_MOTION,ECCENTRICITY,INCLINATION,RA_OF_ASC_NODE,ARG_OF_PERICENTER,MEAN_ANOMALY,EPHEMERIS_TYPE,ELEMENT_SET_NO,REV_AT_EPOCH,BSTAR,MEAN_MOTION_DOT,MEAN_MOTION_DDOT,FILE,TLE_LINE0,TLE_LINE1,TLE_LINE2,OBJECT_ID,OBJECT_NUMBER,SEMIMAJOR_AXIS,PERIOD,APOGEE,PERIGEE,DECAYED
"GENERATED VIA SPACETRACK.ORG API","18 SPCS","48893","SPACEBEE-106","PAYLOAD","U","21059Q","2021-10-24 07:42:01","864224","15.12506086","0.0009304","97.5311","64.3941","192.5246","167.5755","0","999","1821","0.00014631","0.00002484","0","3182197","0 SPACEBEE-106","1 48893U 21059Q   21297.32085491  .00002484  00000-0  14631-3 0  9998","2 48893  97.5311  64.3941 0009304 192.5246 167.5755 15.12506086 18214","2021-059Q","48893","6906.697","95.206","534.988","522.136","0"
"GENERATED VIA SPACETRACK.ORG API","18 SPCS","48893","SPACEBEE-106","PAYLOAD","U","21059Q","2021-10-24 20:24:09","826272","15.12509173","0.0009357","97.5312","64.9164","190.694","169.4093","0","999","1829","0.00016111","0.00002742","0","3182768","0 SPACEBEE-106","1 48893U 21059Q   21297.85011373  .00002742  00000-0  16111-3 0  9996","2 48893  97.5312  64.9164 0009357 190.6940 169.4093 15.12509173 18290","2021-059Q","48893","6906.688","95.206","535.015","522.090","0"
"GENERATED VIA SPACETRACK.ORG API","18 SPCS","48893","SPACEBEE-106","PAYLOAD","U","21059Q","2021-10-25 04:20:29","754816","15.12511019","0.0009383","97.5312","65.2428","189.5942","170.5111","0","999","1834","0.00016837","0.00002869","0","3183453","0 SPACEBEE-106","1 48893U 21059Q   21298.18089994  .00002869  00000-0  16837-3 0  9992","2 48893  97.5312  65.2428 0009383 189.5942 170.5111 15.12511019 18347","2021-059Q","48893","6906.682","95.206","535.028","522.067","0"
"GENERATED VIA SPACETRACK.ORG API","18 SPCS","48893","SPACEBEE-106","PAYLOAD","U","21059Q","2021-10-25 07:31:01","712064","15.12511859","0.0009399","97.5312","65.3733","189.1371","170.969","0","999","1836","0.0001712","0.00002919","0","3183237","0 SPACEBEE-106","1 48893U 21059Q   21298.31321426  .00002919  00000-0  17120-3 0  9998","2 48893  97.5312  65.3733 0009399 189.1371 170.9690 15.12511859 18366","2021-059Q","48893","6906.680","95.206","535.036","522.053","0"
"GENERATED VIA SPACETRACK.ORG API","18 SPCS","48893","SPACEBEE-106","PAYLOAD","U","21059Q","2021-10-26 07:20:01","133952","15.1252052","0.0009481","97.5312","66.3524","185.7021","174.4103","0","999","1851","0.00022519","0.00003861","0","3184921","0 SPACEBEE-106","1 48893U 21059Q   21299.30556868  .00003861  00000-0  22519-3 0  9993","2 48893  97.5312  66.3524 0009481 185.7021 174.4103 15.12520520 18511","2021-059Q","48893","6906.653","95.205","535.067","521.970","0"
"GENERATED VIA SPACETRACK.ORG API","18 SPCS","48893","SPACEBEE-106","PAYLOAD","U","21059Q","2021-10-26 21:37:24","575232","15.12525277","0.0009532","97.5312","66.9399","183.5346","176.5819","0","999","1860","0.00023665","0.00004061","0","3185376","0 SPACEBEE-106","1 48893U 21059Q   21299.90097888  .00004061  00000-0  23665-3 0  9997","2 48893  97.5312  66.9399 0009532 183.5346 176.5819 15.12525277 18601","2021-059Q","48893","6906.639","95.205","535.087","521.920","0"
"GENERATED VIA SPACETRACK.ORG API","18 SPCS","48893","SPACEBEE-106","PAYLOAD","U","21059Q","2021-10-27 08:44:16","22976","15.1252895","0.0009571","97.5312","67.3969","181.9414","178.1781","0","999","1867","0.00024396","0.00004189","0","3187107","0 SPACEBEE-106","1 48893U 21059Q   21300.36407434  .00004189  00000-0  24396-3 0  9995","2 48893  97.5312  67.3969 0009571 181.9414 178.1781 15.12528950 18674","2021-059Q","48893","6906.628","95.205","535.103","521.882","0"
"GENERATED VIA SPACETRACK.ORG API","18 SPCS","48893","SPACEBEE-106","PAYLOAD","U","21059Q","2021-10-28 02:12:10","913472","15.12535924","0.0009633","97.5312","68.115","179.2365","180.8882","0","999","1878","0.00026322","0.00004527","0","3188053","0 SPACEBEE-106","1 48893U 21059Q   21301.09179298  .00004527  00000-0  26322-3 0  9997","2 48893  97.5312  68.1150 0009633 179.2365 180.8882 15.12535924 18782","2021-059Q","48893","6906.606","95.204","535.125","521.818","0"
"GENERATED VIA SPACETRACK.ORG API","18 SPCS","48893","SPACEBEE-106","PAYLOAD","U","21059Q","2021-10-28 08:33:14","444352","15.12537786","0.0009652","97.5311","68.3761","178.3013","181.8252","0","999","1882","0.00024921","0.00004282","0","3189111","0 SPACEBEE-106","1 48893U 21059Q   21301.35641718  .00004282  00000-0  24921-3 0  9998","2 48893  97.5311  68.3761 0009652 178.3013 181.8252 15.12537786 18827","2021-059Q","48893","6906.601","95.204","535.132","521.800","0"
"GENERATED VIA SPACETRACK.ORG API","18 SPCS","48893","SPACEBEE-106","PAYLOAD","U","21059Q","2021-10-28 19:40:05","553408","15.12541767","0.0009697","97.5311","68.8331","176.6467","183.483","0","999","1889","0.00025065","0.00004308","0","3189402","0 SPACEBEE-106","1 48893U 21059Q   21301.81950872  .00004308  00000-0  25065-3 0  9992","2 48893  97.5311  68.8331 0009697 176.6467 183.4830 15.12541767 18899","2021-059Q","48893","6906.589","95.204","535.151","521.756","0"
"GENERATED VIA SPACETRACK.ORG API","18 SPCS","48893","SPACEBEE-106","PAYLOAD","U","21059Q","2021-10-29 08:22:12","436320","15.12546674","0.0009723","97.531","69.3553","174.8352","185.2981","0","999","1897","0.00027171","0.00004676","0","3190680","0 SPACEBEE-106","1 48893U 21059Q   21302.34875505  .00004676  00000-0  27171-3 0  9998","2 48893  97.5310  69.3553 0009723 174.8352 185.2981 15.12546674 18971","2021-059Q","48893","6906.574","95.204","535.154","521.723","0"
"GENERATED VIA SPACETRACK.ORG API","18 SPCS","48893","SPACEBEE-106","PAYLOAD","U","21059Q","2021-10-29 08:22:12","436320","15.12546674","0.0009723","97.531","69.3553","174.8352","185.2981","0","999","1897","0.00027171","0.00004676","0","3191412","0 SPACEBEE-106","1 48893U 21059Q   21302.34875505  .00004676  00000-0  27171-3 0  9998","2 48893  97.5310  69.3553 0009723 174.8352 185.2981 15.12546674 18971","2021-059Q","48893","6906.574","95.204","535.154","521.723","0"
"GENERATED VIA SPACETRACK.ORG API","18 SPCS","48893","SPACEBEE-106","PAYLOAD","U","21059Q","2021-10-29 14:43:15","822912","15.12549607","0.0009747","97.531","69.6164","173.8924","186.2427","0","999","1901","0.00029374","0.00005061","0","3191844","0 SPACEBEE-106","1 48893U 21059Q   21302.61337758  .00005061  00000-0  29374-3 0  9997","2 48893  97.5310  69.6164 0009747 173.8924 186.2427 15.12549607 19013","2021-059Q","48893","6906.565","95.203","535.162","521.698","0"
"GENERATED VIA SPACETRACK.ORG API","18 SPCS","48893","SPACEBEE-106","PAYLOAD","U","21059Q","2021-10-30 06:35:54","100608","15.12555167","0.0009791","97.5309","70.2692","171.7568","188.3825","0","999","1911","0.00029262","0.00005043","0","3192905","0 SPACEBEE-106","1 48893U 21059Q   21303.27493172  .00005043  00000-0  29262-3 0  9999","2 48893  97.5309  70.2692 0009791 171.7568 188.3825 15.12555167 19119","2021-059Q","48893","6906.548","95.203","535.175","521.651","0"
"GENERATED VIA SPACETRACK.ORG API","18 SPCS","48893","SPACEBEE-106","PAYLOAD","U","21059Q","2021-10-30 17:42:44","777664","15.12559857","0.0009831","97.531","70.7262","170.2567","189.8856","0","999","1918","0.00031226","0.00005386","0","3193101","0 SPACEBEE-106","1 48893U 21059Q   21303.73801826  .00005386  00000-0  31226-3 0  9992","2 48893  97.5310  70.7262 0009831 170.2567 189.8856 15.12559857 19184","2021-059Q","48893","6906.534","95.203","535.188","521.609","0"
"GENERATED VIA SPACETRACK.ORG API","18 SPCS","48893","SPACEBEE-106","PAYLOAD","U","21059Q","2021-10-31 01:39:03","744576","15.12563801","0.0009855","97.5309","71.0526","169.2316","190.9128","0","999","1923","0.00033959","0.00005865","0","3194431","0 SPACEBEE-106","1 48893U 21059Q   21304.06879334  .00005865  00000-0  33959-3 0  9995","2 48893  97.5309  71.0526 0009855 169.2316 190.9128 15.12563801 19230","2021-059Q","48893","6906.522","95.203","535.193","521.580","0"
"GENERATED VIA SPACETRACK.ORG API","18 SPCS","48893","SPACEBEE-106","PAYLOAD","U","21059Q","2021-10-31 17:31:41","493504","15.12569392","0.0009898","97.531","71.7054","167.1755","192.9729","0","999","1933","0.00031954","0.00005515","0","3194950","0 SPACEBEE-106","1 48893U 21059Q   21304.73034136  .00005515  00000-0  31954-3 0  9997","2 48893  97.5310  71.7054 0009898 167.1755 192.9729 15.12569392 19337","2021-059Q","48893","6906.505","95.202","535.206","521.533","0"
"GENERATED VIA SPACETRACK.ORG API","18 SPCS","48893","SPACEBEE-106","PAYLOAD","U","21059Q","2021-10-31 20:42:12","991968","15.12570015","0.0009901","97.531","71.836","166.8423","193.3068","0","999","1935","0.00029705","0.00005122","0","3195757","0 SPACEBEE-106","1 48893U 21059Q   21304.86265037  .00005122  00000-0  29705-3 0  9992","2 48893  97.5310  71.8360 0009901 166.8423 193.3068 15.12570015 19358","2021-059Q","48893","6906.503","95.202","535.206","521.530","0"
"GENERATED VIA SPACETRACK.ORG API","18 SPCS","48893","SPACEBEE-106","PAYLOAD","U","21059Q","2021-11-01 14:10:06","180384","15.12577174","0.000994","97.531","72.5541","164.698","195.4553","0","999","1946","0.00030387","0.00005243","0","3196301","0 SPACEBEE-106","1 48893U 21059Q   21305.59034931  .00005243  00000-0  30387-3 0  9992","2 48893  97.5310  72.5541 0009940 164.6980 195.4553 15.12577174 19461","2021-059Q","48893","6906.481","95.202","535.211","521.481","0"
"GENERATED VIA SPACETRACK.ORG API","18 SPCS","48893","SPACEBEE-106","PAYLOAD","U","21059Q","2021-11-01 18:55:53","355936","15.12579375","0.0009956","97.531","72.7499","164.0502","196.1044","0","999","1949","0.00030461","0.00005256","0","3196819","0 SPACEBEE-106","1 48893U 21059Q   21305.78881199  .00005256  00000-0  30461-3 0  9996","2 48893  97.5310  72.7499 0009956 164.0502 196.1044 15.12579375 19497","2021-059Q","48893","6906.474","95.202","535.215","521.463","0"
